NORAD_CAT_ID,OBJECT_NAME,OBJECT_TYPE,EPOCH,MEAN_MOTION,ECCENTRICITY,INCLINATION,RA_OF_ASC_NODE,ARG_OF_PERICENTER,MEAN_ANOMALY,BSTAR,MEAN_MOTION_DOT,MEAN_MOTION_DDOT,TLE_LINE0,TLE_LINE1,TLE_LINE2,SEMIMAJOR_AXIS,PERIOD,APOGEE,PERIGEE,DECAYED
52471.0,STARLINK-3862,PAYLOAD,2022-07-08 12:36:07,15.3696938,0.0002184,53.2144,316.5273,46.535,313.5836,-0.014913,-0.00512131,0.0,0 STARLINK-3862,1 52471U 22049W   22189.52509052 -.00512131  00000-0 -14913-1 0  9990,2 52471  53.2144 316.5273 0002184  46.5350 313.5836 15.36969380 10072,6833.214,93.691,456.572,453.587,0.0
52471.0,STARLINK-3862,PAYLOAD,2022-07-08 22:00:01,15.35003772,0.000146,53.2171,314.683,42.1817,323.6774,-0.033863,-0.01070355,0.0,0 STARLINK-3862,1 52471U 22049W   22189.91668981 -.01070355  00000-0 -33863-1 0  9993,2 52471  53.2171 314.6830 0001460  42.1817 323.6774 15.35003772  1308,6839.045999999999,93.811,461.91,459.913,0.0
52471.0,STARLINK-3862,PAYLOAD,2022-07-09 14:00:01,15.33483225,0.000186,53.2174,311.569,34.8778,55.1406,-0.035465,-0.01068101,0.0,0 STARLINK-3862,1 52471U 22049W   22190.58334491 -.01068101  00000-0 -35465-1 0  9990,2 52471  53.2174 311.5690 0001860  34.8778  55.1406 15.33483225  1301,6843.566,93.904,466.704,464.159,0.0
52471.0,STARLINK-3862,PAYLOAD,2022-07-09 20:00:01,15.3291277,0.0001486999999999,53.2171,310.4033,42.1988,348.4618,-0.036022,-0.01065539,0.0,0 STARLINK-3862,1 52471U 22049W   22190.83334491 -.01065539  00000-0 -36022-1 0  9990,2 52471  53.2171 310.4033 0001487  42.1988 348.4618 15.32912770  1301,6845.264,93.939,468.147,466.111,0.0
52471.0,STARLINK-3862,PAYLOAD,2022-07-10 14:00:01,15.31202671,0.0001912,53.2173,306.911,39.6513,169.8569,-0.037973,-0.01064492,0.0,0 STARLINK-3862,1 52471U 22049W   22191.58334491 -.01064492  00000-0 -37973-1 0  9996,2 52471  53.2173 306.9110 0001912  39.6513 169.8569 15.31202671 10386,6850.36,94.044,473.535,470.915,0.0
52471.0,STARLINK-3862,PAYLOAD,2022-07-10 22:00:00,15.30446126,0.0001485,53.2171,305.3617,55.8617,191.6501,-0.039076,-0.01069269,0.0,0 STARLINK-3862,1 52471U 22049W   22191.91667824 -.01069269  00000-0 -39076-1 0  9995,2 52471  53.2171 305.3617 0001485  55.8617 191.6501 15.30446126  1304,6852.6169999999975,94.09,475.5,473.465,0.0
52471.0,STARLINK-3862,PAYLOAD,2022-07-11 14:00:01,15.28925755,0.0001734,53.2172,302.2693,37.0681,283.7144,-0.040856,-0.01066695,0.0,0 STARLINK-3862,1 52471U 22049W   22192.58334491 -.01066695  00000-0 -40856-1 0  9998,2 52471  53.2172 302.2693 0001734  37.0681 283.7144 15.28925755  1308,6857.159000000002,94.184,480.213,477.835,0.0
52471.0,STARLINK-3862,PAYLOAD,2022-07-11 22:00:00,15.281674800000005,0.0001415,53.2172,300.7251,47.3297,308.7193,-0.041917,-0.01068835,0.0,0 STARLINK-3862,1 52471U 22049W   22192.91667824 -.01068835  00000-0 -41917-1 0  9991,2 52471  53.2172 300.7251 0001415  47.3297 308.7193 15.28167480  1309,6859.428000000001,94.231,482.263,480.322,0.0
52471.0,STARLINK-3862,PAYLOAD,2022-07-12 14:00:01,15.26648461,0.0001927,53.2173,297.6436,32.9532,30.8901,-0.043896,-0.01068554,0.0,0 STARLINK-3862,1 52471U 22049W   22193.58334491 -.01068554  00000-0 -43896-1 0  9992,2 52471  53.2173 297.6436 0001927  32.9532  30.8901 15.26648461 10692,6863.977,94.324,487.165,484.519,0.0
52471.0,STARLINK-3862,PAYLOAD,2022-07-12 22:00:00,15.25886993,0.0001599,53.2173,296.1047,44.1894,52.1835,-0.044765,-0.01065001,0.0,0 STARLINK-3862,1 52471U 22049W   22193.91667824 -.01065001  00000-0 -44765-1 0  9998,2 52471  53.2173 296.1047 0001599  44.1894  52.1835 15.25886993  1309,6866.26,94.371,489.223,487.027,0.0
52471.0,STARLINK-3862,PAYLOAD,2022-07-13 14:00:01,15.24367948,0.0001923,53.2173,293.0341,40.1243,118.5667,-0.046857,-0.01064855,0.0,0 STARLINK-3862,1 52471U 22049W   22194.58334491 -.01064855  00000-0 -46857-1 0  9993,2 52471  53.2173 293.0341 0001923  40.1243 118.5667 15.24367948 10849,6870.821,94.465,494.007,491.365,0.0
52471.0,STARLINK-3862,PAYLOAD,2022-07-13 22:00:00,15.23608719,0.0001759,53.2173,291.5003,45.26600000000001,143.2159,-0.047952,-0.01065132,0.0,0 STARLINK-3862,1 52471U 22049W   22194.91667824 -.01065132  00000-0 -47952-1 0  9995,2 52471  53.2173 291.5003 0001759  45.2660 143.2159 15.23608719  1308,6873.103,94.512,496.177,493.759,0.0
52471.0,STARLINK-3862,PAYLOAD,2022-07-14 14:00:01,15.22088424,0.0001822,53.2174,288.4405,43.0122,202.3123,-0.050046,-0.01062635,0.0,0 STARLINK-3862,1 52471U 22049W   22195.58334491 -.01062635  00000-0 -50046-1 0  9993,2 52471  53.2174 288.4405 0001822  43.0122 202.3123 15.22088424 11000,6877.679,94.607,500.797,498.291,0.0
52471.0,STARLINK-3862,PAYLOAD,2022-07-14 22:00:00,15.21331208,0.0001518,53.2173,286.9120000000001,52.2988,220.078,-0.051403,-0.01066807,0.0,0 STARLINK-3862,1 52471U 22049W   22195.91667824 -.01066807  00000-0 -51403-1 0  9992,2 52471  53.2173 286.9120 0001518  52.2988 220.0780 15.21331208  1308,6879.9609999999975,94.654,502.871,500.782,0.0
52471.0,STARLINK-3862,PAYLOAD,2022-07-15 14:00:01,15.19810923,0.0001724,53.2174,283.863,39.9849,283.7582,-0.053599,-0.01064032,0.0,0 STARLINK-3862,1 52471U 22049W   22196.58334491 -.01064032  00000-0 -53599-1 0  9993,2 52471  53.2174 283.8630 0001724  39.9849 283.7582 15.19810923 11151,6884.549,94.749,507.6,505.227,0.0
52471.0,STARLINK-3862,PAYLOAD,2022-07-15 22:00:00,15.19052468,0.0001431,53.2174,282.3396,48.6547,299.4035,-0.054937,-0.0107995,0.0,0 STARLINK-3862,1 52471U 22049W   22196.91667824 -.01079950  00000-0 -54937-1 0  9991,2 52471  53.2174 282.3396 0001431  48.6547 299.4035 15.19052468  1306,6886.84,94.796,509.69,507.719,0.0
52471.0,STARLINK-3862,PAYLOAD,2022-07-16 14:00:01,15.17532997,0.0001844,53.2174,279.3014,35.4878,358.4604,-0.057333,-0.0107864,0.0,0 STARLINK-3862,1 52471U 22049W   22197.58334491 -.01078640  00000-0 -57333-1 0  9994,2 52471  53.2174 279.3014 0001844  35.4878 358.4604 15.17532997 11305,6891.436,94.891,514.572,512.031,0.0
52471.0,STARLINK-3862,PAYLOAD,2022-07-16 22:00:00,15.16772901,0.0001584,53.2174,277.7832,43.8712,11.6546,-0.058568,-0.01078002,0.0,0 STARLINK-3862,1 52471U 22049W   22197.91667824 -.01078002  00000-0 -58568-1 0  9993,2 52471  53.2174 277.7832 0001584  43.8712  11.6546 15.16772901  1308,6893.738,94.938,516.695,514.511,0.0
52471.0,STARLINK-3862,PAYLOAD,2022-07-17 14:00:01,15.1525348,0.0001945,53.2175,274.7557,36.9322,59.0076,-0.061106,-0.01076981,0.0,0 STARLINK-3862,1 52471U 22049W   22198.58334491 -.01076981  00000-0 -61106-1 0  9994,2 52471  53.2175 274.7557 0001945  36.9322  59.0076 15.15253480 11457,6898.346,95.034,521.553,518.869,0.0
52471.0,STARLINK-3862,PAYLOAD,2022-07-17 22:00:00,15.14493512,0.0001876,53.2174,273.2427,38.2741,76.5053,-0.062395,-0.01076222,0.0,0 STARLINK-3862,1 52471U 22049W   22198.91667824 -.01076222  00000-0 -62395-1 0  9999,2 52471  53.2174 273.2427 0001876  38.2741  76.5053 15.14493512  1302,6900.654,95.081,523.813,521.224,0.0
52471.0,STARLINK-3862,PAYLOAD,2022-07-18 14:00:01,15.12973191,0.0002069,53.2175,270.226,36.668,113.0497,-0.064979,-0.01073856,0.0,0 STARLINK-3862,1 52471U 22049W   22199.58334491 -.01073856  00000-0 -64979-1 0  9994,2 52471  53.2175 270.2260 0002069  36.6680 113.0497 15.12973191  1307,6905.276,95.177,528.569,525.712,0.0
52471.0,STARLINK-3862,PAYLOAD,2022-07-18 16:00:00,15.12780857,0.0001929,53.2173,269.8492,38.3918,205.4371,-0.065002,-0.01068804,0.0,0 STARLINK-3862,1 52471U 22049W   22199.66667824 -.01068804  00000-0 -65002-1 0  9997,2 52471  53.2173 269.8492 0001929  38.3918 205.4371 15.12780857 11621,6905.861,95.189,529.058,526.394,0.0
52471.0,STARLINK-3862,PAYLOAD,2022-07-18 22:00:00,15.12214578,0.0001975,53.2174,268.7181,38.2063,127.6124,-0.066465,-0.0107512999999999,0.0,0 STARLINK-3862,1 52471U 22049W   22199.91667824 -.01075130  00000-0 -66465-1 0  9999,2 52471  53.2174 268.7181 0001975  38.2063 127.6124 15.12214578  1303,6907.585,95.225,530.814,528.086,0.0
52471.0,STARLINK-3862,PAYLOAD,2022-07-19 14:00:01,15.10693155,0.0002134,53.2176,265.7121,35.4536,159.8278,-0.069053,-0.01070892,0.0,0 STARLINK-3862,1 52471U 22049W   22200.58334491 -.01070892  00000-0 -69053-1 0  9992,2 52471  53.2176 265.7121 0002134  35.4536 159.8278 15.10693155 11755,6912.222,95.32,535.562,532.612,0.0
52471.0,STARLINK-3862,PAYLOAD,2022-07-19 22:00:00,15.09905743,0.0001959,53.2175,264.2097,33.0911,175.5593,-0.066038,-0.01006689,0.0,0 STARLINK-3862,1 52471U 22049W   22200.91667824 -.01006689  00000-0 -66038-1 0  9991,2 52471  53.2175 264.2097 0001959  33.0911 175.5593 15.09905743  1307,6914.625,95.37,537.844,535.135,0.0
52471.0,STARLINK-3862,PAYLOAD,2022-07-20 06:00:00,15.09105444,0.0001704,53.2177,262.7113,38.772,182.329,-0.02423,-0.00369283,0.0,0 STARLINK-3862,1 52471U 22049W   22201.25001157 -.00369283  00000-0 -24230-1 0  9999,2 52471  53.2177 262.7113 0001704  38.7720 182.3290 15.09105444 11861,6917.069,95.421,540.113,537.755,0.0
52471.0,STARLINK-3862,PAYLOAD,2022-07-20 14:00:01,15.08834746,0.0001674,53.2176,261.2159,49.1969,183.652,0.00026535,3.937e-05,0.0,0 STARLINK-3862,1 52471U 22049W   22201.58334491  .00003937  00000-0  26535-3 0  9996,2 52471  53.2176 261.2159 0001674  49.1969 183.6520 15.08834746  1302,6917.896,95.438,540.92,538.6030000000002,0.0
52471.0,STARLINK-3862,PAYLOAD,2022-07-20 22:00:01,15.08865389,0.0001583,53.2146,259.7268,38.2698,206.2388,-0.00028336,-4.798e-05,0.0,0 STARLINK-3862,1 52471U 22049W   22201.91668981 -.00004798  00000-0 -28336-3 0  9996,2 52471  53.2146 259.7268 0001583  38.2698 206.2388 15.08865389  1300,6917.803000000001,95.436,540.763,538.573,0.0
52471.0,STARLINK-3862,PAYLOAD,2022-07-21 06:00:00,15.08888543,0.0001629,53.2146,258.2307,43.5213,212.5418,-0.0068503,-0.00107826,0.0,0 STARLINK-3862,1 52471U 22049W   22202.25001157 -.00107826  00000-0 -68503-2 0  9995,2 52471  53.2146 258.2307 0001629  43.5213 212.5418 15.08888543 12012,6917.732,95.434,540.724,538.47,0.0
